{
    "links": {
        "self": "http://www.neowsapp.com/rest/v1/neo/3719862?api_key=iIulBulltgU6a56xZRHN4H3l9WmuAYTsLGpBGhQ2"
    },
    "id": "3719862",
    "neo_reference_id": "3719862",
    "name": "(2015 KM57)",
    "designation": "2015 KM57",
    "nasa_jpl_url": "http://ssd.jpl.nasa.gov/sbdb.cgi?sstr=3719862",
    "absolute_magnitude_h": 25.4,
    "estimated_diameter": {
        "kilometers": {
            "estimated_diameter_min": 0.022108281,
            "estimated_diameter_max": 0.0494356193
        },
        "meters": {
            "estimated_diameter_min": 22.1082810359,
            "estimated_diameter_max": 49.435619262
        },
        "miles": {
            "estimated_diameter_min": 0.0137374447,
            "estimated_diameter_max": 0.0307178602
        },
        "feet": {
            "estimated_diameter_min": 72.5337327539,
            "estimated_diameter_max": 162.1903570994
        }
    },
    "is_potentially_hazardous_asteroid": false,
    "close_approach_data": [
        {
            "close_approach_date": "2015-06-03",
            "close_approach_date_full": "2015-Jun-03 16:35",
            "epoch_date_close_approach": 1433349300000,
            "relative_velocity": {
                "kilometers_per_second": "14.1645199383",
                "kilometers_per_hour": "50992.2717779135",
                "miles_per_hour": "31684.6146500041"
            },
            "miss_distance": {
                "astronomical": "0.0169769671",
                "lunar": "6.6040402019",
                "kilometers": "2539718.117220077",
                "miles": "1578107.6602159826"
            },
            "orbiting_body": "Earth"
        }
    ],
    "orbital_data": {
        "orbit_id": "14",
        "orbit_determination_date": "2018-02-10 07:06:43",
        "first_observation_date": "2015-05-20",
        "last_observation_date": "2015-06-04",
        "data_arc_in_days": 15,
        "observations_used": 63,
        "orbit_uncertainty": "8",
        "minimum_orbit_intersection": ".0052499",
        "jupiter_tisserand_invariant": "3.710",
        "epoch_osculation": "2457165.5",
        "eccentricity": ".56804813820803",
        "semi_major_axis": "1.919650087474927",
        "inclination": ".6028497186075656",
        "ascending_node_longitude": "162.1890766844679",
        "orbital_period": "971.4747930197542",
        "perihelion_distance": ".8291964292739129",
        "perihelion_argument": "151.8870874832076",
        "aphelion_distance": "3.010103745675942",
        "perihelion_time": "2457220.138047061459",
        "mean_anomaly": "339.7527459451794",
        "mean_motion": ".3705706031558141",
        "equinox": "J2000",
        "orbit_class": {
            "orbit_class_type": "APO",
            "orbit_class_description": "Near-Earth asteroid orbits which cross the Earth’s orbit similar to that of 1862 Apollo",
            "orbit_class_range": "a (semi-major axis) > 1.0 AU; q (perihelion) < 1.017 AU"
        }
    },
    "is_sentry_object": false
}